[{"OBJECT_NAME":"JILIN-01 KUANFU 02B 6","OBJECT_ID":"2024-169F","EPOCH":"2026-03-09T21:43:38.712288","MEAN_MOTION":15.09238946,"ECCENTRICITY":0.00150747,"INCLINATION":97.5549,"RA_OF_ASC_NODE":159.9459,"ARG_OF_PERICENTER":324.4254,"MEAN_ANOMALY":35.5968,"EPHEMERIS_TYPE":0,"CLASSIFICATION_TYPE":"U","NORAD_CAT_ID":61194,"ELEMENT_SET_NO":999,"REV_AT_EPOCH":8086,"BSTAR":0.00036442477,"MEAN_MOTION_DOT":5.751e-5,"MEAN_MOTION_DDOT":0},{"OBJECT_NAME":"STARLINK-35190","OBJECT_ID":"2025-211M","EPOCH":"2026-03-09T16:40:11.055360","MEAN_MOTION":15.0565309,"ECCENTRICITY":0.00011123,"INCLINATION":97.6022,"RA_OF_ASC_NODE":114.087,"ARG_OF_PERICENTER":95.7198,"MEAN_ANOMALY":264.4156,"EPHEMERIS_TYPE":0,"CLASSIFICATION_TYPE":"U","NORAD_CAT_ID":65663,"ELEMENT_SET_NO":999,"REV_AT_EPOCH":2704,"BSTAR":0.00021777848,"MEAN_MOTION_DOT":3.083e-5,"MEAN_MOTION_DDOT":0}]
